start=new Date('2022-01-11T00:00:00.000Z').valueOf();
sats=[{"MEAN_MOTION":"15.04771721","CENTER_NAME":"EARTH","RA_OF_ASC_NODE":"145.1813","ARG_OF_PERICENTER":"87.2651","CLASSIFICATION_TYPE":"U","EPOCH":"2022-01-10T14:38:29.272992","APOAPSIS":"553.306","COUNTRY_CODE":"US","ELEMENT_SET_NO":"999","LAUNCH_DATE":"2021-05-09","NORAD_CAT_ID":"48435","MEAN_ELEMENT_THEORY":"SGP4","TIME_SYSTEM":"UTC","SEMIMAJOR_AXIS":"6930.343","DECAY_DATE":null,"REV_AT_EPOCH":"3788","ECCENTRICITY":"0.00015840","EPHEMERIS_TYPE":"0","OBJECT_ID":"2021-040H","INCLINATION":"53.0547","MEAN_MOTION_DOT":"0.00000242","PERIAPSIS":"551.111","PERIOD":"95.696","TLE_LINE2":"2 48435  53.0547 145.1813 0001584  87.2651 272.8519 15.04771721 37885","MEAN_ANOMALY":"272.8519","GP_ID":"193594573","SITE":"AFETR","OBJECT_NAME":"STARLINK-2633","BSTAR":"0.00003638200000","TLE_LINE1":"1 48435U 21040H   22010.61006103  .00000242  00000-0  36382-4 0  9997","RCS_SIZE":"LARGE","FILE":"3268856","MEAN_MOTION_DDOT":"0.0000000000000","OBJECT_TYPE":"PAYLOAD","REF_FRAME":"TEME"},{"REF_FRAME":"TEME","OBJECT_TYPE":"PAYLOAD","MEAN_MOTION_DDOT":"0.0000000000000","FILE":"3269118","RCS_SIZE":"LARGE","TLE_LINE1":"1 48436U 21040J   22010.68006353  .00002263  00000-0  17074-3 0  9993","BSTAR":"0.00017074000000","OBJECT_NAME":"STARLINK-2639","GP_ID":"193625226","SITE":"AFETR","TLE_LINE2":"2 48436  53.0539 160.7101 0002155  90.8743 269.2493 15.06412275 37673","PERIOD":"95.591","MEAN_ANOMALY":"269.2493","PERIAPSIS":"545.684","INCLINATION":"53.0539","MEAN_MOTION_DOT":"0.00002263","OBJECT_ID":"2021-040J","SEMIMAJOR_AXIS":"6925.311","DECAY_DATE":null,"REV_AT_EPOCH":"3767","ECCENTRICITY":"0.00021550","EPHEMERIS_TYPE":"0","TIME_SYSTEM":"UTC","MEAN_ELEMENT_THEORY":"SGP4","NORAD_CAT_ID":"48436","LAUNCH_DATE":"2021-05-09","APOAPSIS":"548.668","COUNTRY_CODE":"US","ELEMENT_SET_NO":"999","EPOCH":"2022-01-10T16:19:17.488992","CLASSIFICATION_TYPE":"U","ARG_OF_PERICENTER":"90.8743","RA_OF_ASC_NODE":"160.7101","MEAN_MOTION":"15.06412275","CENTER_NAME":"EARTH"},{"PERIOD":"95.592","TLE_LINE2":"2 48437  53.0409 170.5467 0001900  79.7125 280.4078 15.06398847 37549","MEAN_ANOMALY":"280.4078","GP_ID":"193625478","SITE":"AFETR","OBJECT_ID":"2021-040K","INCLINATION":"53.0409","MEAN_MOTION_DOT":"0.00001143","PERIAPSIS":"545.901","FILE":"3269118","MEAN_MOTION_DDOT":"0.0000000000000","OBJECT_TYPE":"PAYLOAD","REF_FRAME":"TEME","OBJECT_NAME":"STARLINK-2642","TLE_LINE1":"1 48437U 21040K   22010.73077111  .00001143  00000-0  95614-4 0  9993","BSTAR":"0.00009561400000","RCS_SIZE":"LARGE","CLASSIFICATION_TYPE":"U","MEAN_MOTION":"15.06398847","CENTER_NAME":"EARTH","RA_OF_ASC_NODE":"170.5467","ARG_OF_PERICENTER":"79.7125","NORAD_CAT_ID":"48437","MEAN_ELEMENT_THEORY":"SGP4","TIME_SYSTEM":"UTC","SEMIMAJOR_AXIS":"6925.352","DECAY_DATE":null,"REV_AT_EPOCH":"3754","ECCENTRICITY":"0.00019000","EPHEMERIS_TYPE":"0","EPOCH":"2022-01-10T17:32:18.623904","APOAPSIS":"548.533","COUNTRY_CODE":"US","ELEMENT_SET_NO":"999","LAUNCH_DATE":"2021-05-09"},{"CLASSIFICATION_TYPE":"U","ARG_OF_PERICENTER":"83.7130","RA_OF_ASC_NODE":"160.7409","MEAN_MOTION":"15.06408879","CENTER_NAME":"EARTH","DECAY_DATE":null,"REV_AT_EPOCH":"3767","SEMIMAJOR_AXIS":"6925.321","ECCENTRICITY":"0.00021000","EPHEMERIS_TYPE":"0","TIME_SYSTEM":"UTC","MEAN_ELEMENT_THEORY":"SGP4","NORAD_CAT_ID":"48438","LAUNCH_DATE":"2021-05-09","COUNTRY_CODE":"US","APOAPSIS":"548.641","ELEMENT_SET_NO":"999","EPOCH":"2022-01-10T16:14:01.301280","GP_ID":"193625728","SITE":"AFETR","TLE_LINE2":"2 48438  53.0549 160.7409 0002100  83.7130 276.4098 15.06408879 37674","PERIOD":"95.592","MEAN_ANOMALY":"276.4098","PERIAPSIS":"545.732","INCLINATION":"53.0549","MEAN_MOTION_DOT":"0.00001367","OBJECT_ID":"2021-040L","REF_FRAME":"TEME","OBJECT_TYPE":"PAYLOAD","MEAN_MOTION_DDOT":"0.0000000000000","FILE":"3269118","RCS_SIZE":"LARGE","TLE_LINE1":"1 48438U 21040L   22010.67640395  .00001367  00000-0  11066-3 0  9993","BSTAR":"0.00011066000000","OBJECT_NAME":"STARLINK-2640"},{"OBJECT_ID":"2021-040M","MEAN_MOTION_DOT":"0.00002813","INCLINATION":"53.0534","PERIAPSIS":"545.880","PERIOD":"95.592","TLE_LINE2":"2 48439  53.0534 160.7591 0001921  86.2264 273.8945 15.06400890 37674","MEAN_ANOMALY":"273.8945","SITE":"AFETR","GP_ID":"193624977","OBJECT_NAME":"STARLINK-2583","TLE_LINE1":"1 48439U 21040M   22010.67270340  .00002813  00000-0  20766-3 0  9997","BSTAR":"0.00020766000000","RCS_SIZE":"LARGE","FILE":"3269118","MEAN_MOTION_DDOT":"0.0000000000000","OBJECT_TYPE":"PAYLOAD","REF_FRAME":"TEME","MEAN_MOTION":"15.06400890","CENTER_NAME":"EARTH","RA_OF_ASC_NODE":"160.7591","ARG_OF_PERICENTER":"86.2264","CLASSIFICATION_TYPE":"U","EPOCH":"2022-01-10T16:08:41.573760","APOAPSIS":"548.541","COUNTRY_CODE":"US","ELEMENT_SET_NO":"999","LAUNCH_DATE":"2021-05-09","MEAN_ELEMENT_THEORY":"SGP4","NORAD_CAT_ID":"48439","TIME_SYSTEM":"UTC","DECAY_DATE":null,"SEMIMAJOR_AXIS":"6925.346","REV_AT_EPOCH":"3767","ECCENTRICITY":"0.00019210","EPHEMERIS_TYPE":"0"},{"CLASSIFICATION_TYPE":"U","RA_OF_ASC_NODE":"160.7685","CENTER_NAME":"EARTH","MEAN_MOTION":"15.06401622","ARG_OF_PERICENTER":"76.4692","NORAD_CAT_ID":"48440","MEAN_ELEMENT_THEORY":"SGP4","EPHEMERIS_TYPE":"0","DECAY_DATE":null,"ECCENTRICITY":"0.00018950","SEMIMAJOR_AXIS":"6925.344","REV_AT_EPOCH":"3767","TIME_SYSTEM":"UTC","EPOCH":"2022-01-10T16:03:22.537440","LAUNCH_DATE":"2021-05-09","ELEMENT_SET_NO":"999","COUNTRY_CODE":"US","APOAPSIS":"548.521","MEAN_ANOMALY":"283.6508","TLE_LINE2":"2 48440  53.0564 160.7685 0001895  76.4692 283.6508 15.06401622 37677","PERIOD":"95.592","GP_ID":"193624727","SITE":"AFETR","OBJECT_ID":"2021-040N","PERIAPSIS":"545.896","INCLINATION":"53.0564","MEAN_MOTION_DOT":"0.00002248","MEAN_MOTION_DDOT":"0.0000000000000","FILE":"3269118","REF_FRAME":"TEME","OBJECT_TYPE":"PAYLOAD","TLE_LINE1":"1 48440U 21040N   22010.66901085  .00002248  00000-0  16977-3 0  9996","BSTAR":"0.00016977000000","OBJECT_NAME":"STARLINK-2682","RCS_SIZE":"LARGE"},{"CLASSIFICATION_TYPE":"U","ARG_OF_PERICENTER":"86.2612","CENTER_NAME":"EARTH","MEAN_MOTION":"15.06403872","RA_OF_ASC_NODE":"160.4828","TIME_SYSTEM":"UTC","EPHEMERIS_TYPE":"0","SEMIMAJOR_AXIS":"6925.337","DECAY_DATE":null,"REV_AT_EPOCH":"3768","ECCENTRICITY":"0.00018070","MEAN_ELEMENT_THEORY":"SGP4","NORAD_CAT_ID":"48441","ELEMENT_SET_NO":"999","APOAPSIS":"548.453","COUNTRY_CODE":"US","LAUNCH_DATE":"2021-05-09","EPOCH":"2022-01-10T17:33:36.954144","GP_ID":"193625978","SITE":"AFETR","MEAN_ANOMALY":"273.8583","PERIOD":"95.592","TLE_LINE2":"2 48441  53.0557 160.4828 0001807  86.2612 273.8583 15.06403872 37684","INCLINATION":"53.0557","MEAN_MOTION_DOT":"0.00001281","PERIAPSIS":"545.950","OBJECT_ID":"2021-040P","OBJECT_TYPE":"PAYLOAD","REF_FRAME":"TEME","FILE":"3269118","MEAN_MOTION_DDOT":"0.0000000000000","RCS_SIZE":"LARGE","OBJECT_NAME":"STARLINK-2702","BSTAR":"0.00010485000000","TLE_LINE1":"1 48441U 21040P   22010.73167771  .00001281  00000-0  10485-3 0  9995"},{"EPHEMERIS_TYPE":"0","DECAY_DATE":null,"SEMIMAJOR_AXIS":"6925.339","REV_AT_EPOCH":"3768","ECCENTRICITY":"0.00022100","TIME_SYSTEM":"UTC","NORAD_CAT_ID":"48442","MEAN_ELEMENT_THEORY":"SGP4","LAUNCH_DATE":"2021-05-09","ELEMENT_SET_NO":"999","COUNTRY_CODE":"US","APOAPSIS":"548.735","EPOCH":"2022-01-10T17:28:18.710976","CLASSIFICATION_TYPE":"U","ARG_OF_PERICENTER":"94.1947","RA_OF_ASC_NODE":"160.4894","CENTER_NAME":"EARTH","MEAN_MOTION":"15.06403107","REF_FRAME":"TEME","OBJECT_TYPE":"PAYLOAD","MEAN_MOTION_DDOT":"0.0000000000000","FILE":"3269118","RCS_SIZE":"LARGE","BSTAR":"0.00010569000000","TLE_LINE1":"1 48442U 21040Q   22010.72799434  .00001293  00000-0  10569-3 0  9998","OBJECT_NAME":"STARLINK-2644","SITE":"AFETR","GP_ID":"193626228","MEAN_ANOMALY":"265.9295","PERIOD":"95.592","TLE_LINE2":"2 48442  53.0544 160.4894 0002210  94.1947 265.9295 15.06403107 37685","PERIAPSIS":"545.674","INCLINATION":"53.0544","MEAN_MOTION_DOT":"0.00001293","OBJECT_ID":"2021-040Q"},{"GP_ID":"193624478","SITE":"AFETR","MEAN_ANOMALY":"270.0524","TLE_LINE2":"2 48443  53.0548 160.5076 0002002  90.0694 270.0524 15.06411906 37684","PERIOD":"95.591","INCLINATION":"53.0548","MEAN_MOTION_DOT":"-0.00000788","PERIAPSIS":"545.791","OBJECT_ID":"2021-040R","OBJECT_TYPE":"PAYLOAD","REF_FRAME":"TEME","FILE":"3269118","MEAN_MOTION_DDOT":"0.0000000000000","RCS_SIZE":"LARGE","OBJECT_NAME":"STARLINK-2663","TLE_LINE1":"1 48443U 21040R   22010.72430649 -.00000788  00000-0 -33957-4 0  9996","BSTAR":"-0.00003395700000","CLASSIFICATION_TYPE":"U","ARG_OF_PERICENTER":"90.0694","CENTER_NAME":"EARTH","MEAN_MOTION":"15.06411906","RA_OF_ASC_NODE":"160.5076","TIME_SYSTEM":"UTC","EPHEMERIS_TYPE":"0","DECAY_DATE":null,"REV_AT_EPOCH":"3768","SEMIMAJOR_AXIS":"6925.312","ECCENTRICITY":"0.00020020","NORAD_CAT_ID":"48443","MEAN_ELEMENT_THEORY":"SGP4","ELEMENT_SET_NO":"999","COUNTRY_CODE":"US","APOAPSIS":"548.564","LAUNCH_DATE":"2021-05-09","EPOCH":"2022-01-10T17:23:00.080736"},{"MEAN_MOTION_DDOT":"0.0000000000000","FILE":"3269118","REF_FRAME":"TEME","OBJECT_TYPE":"PAYLOAD","TLE_LINE1":"1 48444U 21040S   22010.72062748  .00001417  00000-0  11404-3 0  9998","BSTAR":"0.00011404000000","OBJECT_NAME":"STARLINK-2645","RCS_SIZE":"LARGE","TLE_LINE2":"2 48444  53.0551 160.5299 0002070  92.2339 267.8887 15.06404490 37687","PERIOD":"95.592","MEAN_ANOMALY":"267.8887","SITE":"AFETR","GP_ID":"193625227","OBJECT_ID":"2021-040S","PERIAPSIS":"545.766","MEAN_MOTION_DOT":"0.00001417","INCLINATION":"53.0551","MEAN_ELEMENT_THEORY":"SGP4","NORAD_CAT_ID":"48444","SEMIMAJOR_AXIS":"6925.335","DECAY_DATE":null,"ECCENTRICITY":"0.00020700","REV_AT_EPOCH":"3768","EPHEMERIS_TYPE":"0","TIME_SYSTEM":"UTC","EPOCH":"2022-01-10T17:17:42.214272","LAUNCH_DATE":"2021-05-09","COUNTRY_CODE":"US","APOAPSIS":"548.633","ELEMENT_SET_NO":"999","CLASSIFICATION_TYPE":"U","RA_OF_ASC_NODE":"160.5299","MEAN_MOTION":"15.06404490","CENTER_NAME":"EARTH","ARG_OF_PERICENTER":"92.2339"}];
